{
  "type": "FeatureCollection",
  "features": [
    {
      "type": "Feature",
      "properties": {
        "norad_id": 58647,
        "name": "TIANMU-1 13",
        "group": "weather",
        "lat": -43.051596170232266,
        "lon": 18.460347467101247,
        "alt_km": 497.4870371016232,
        "timestamp": "2025-12-17T23:38:06.507724+00:00",
        "meta_object_name": "TIANMU-1 13",
        "meta_object_id": "2023-205C",
        "meta_epoch": "2025-12-17T14:22:27.723936",
        "meta_mean_motion": 15.24586446,
        "meta_eccentricity": 0.00061547,
        "meta_inclination": 97.3616,
        "meta_ra_of_asc_node": 11.1441,
        "meta_arg_of_pericenter": 245.0149,
        "meta_mean_anomaly": 115.045,
        "meta_ephemeris_type": 0,
        "meta_classification_type": "U",
        "meta_norad_cat_id": 58647,
        "meta_element_set_no": 999,
        "meta_rev_at_epoch": 10981,
        "meta_bstar": 0.00022502037,
        "meta_mean_motion_dot": 5.477e-05,
        "meta_mean_motion_ddot": 0,
        "tle_line1": "1 58647U 23205C   25351.59893199  .00005477  00000+0  22502-3 0  9997",
        "tle_line2": "2 58647  97.3616  11.1441 0006154 245.0149 115.0450 15.24586446109817"
      },
      "geometry": {
        "type": "Point",
        "coordinates": [
          18.460347467101247,
          -43.051596170232266
        ]
      }
    },
    {
      "type": "Feature",
      "properties": {
        "norad_id": 58648,
        "name": "TIANMU-1 14",
        "group": "weather",
        "lat": 46.70606156910554,
        "lon": 2.9871957046476085,
        "alt_km": 492.40754752455086,
        "timestamp": "2025-12-17T23:38:06.507734+00:00",
        "meta_object_name": "TIANMU-1 14",
        "meta_object_id": "2023-205D",
        "meta_epoch": "2025-12-17T13:58:37.973280",
        "meta_mean_motion": 15.24569776,
        "meta_eccentricity": 0.00069147,
        "meta_inclination": 97.3549,
        "meta_ra_of_asc_node": 10.4721,
        "meta_arg_of_pericenter": 251.3457,
        "meta_mean_anomaly": 108.703,
        "meta_ephemeris_type": 0,
        "meta_classification_type": "U",
        "meta_norad_cat_id": 58648,
        "meta_element_set_no": 999,
        "meta_rev_at_epoch": 10981,
        "meta_bstar": 0.00021240842,
        "meta_mean_motion_dot": 5.164e-05,
        "meta_mean_motion_ddot": 0,
        "tle_line1": "1 58648U 23205D   25351.58238395  .00005164  00000+0  21241-3 0  9990",
        "tle_line2": "2 58648  97.3549  10.4721 0006914 251.3457 108.7030 15.24569776109812"
      },
      "geometry": {
        "type": "Point",
        "coordinates": [
          2.9871957046476085,
          46.70606156910554
        ]
      }
    },
    {
      "type": "Feature",
      "properties": {
        "norad_id": 58660,
        "name": "TIANMU-1 19",
        "group": "weather",
        "lat": 5.368938352900037,
        "lon": 102.30804483771047,
        "alt_km": 486.4499744449431,
        "timestamp": "2025-12-17T23:38:06.507746+00:00",
        "meta_object_name": "TIANMU-1 19",
        "meta_object_id": "2023-208A",
        "meta_epoch": "2025-12-17T14:10:51.535200",
        "meta_mean_motion": 15.2793803,
        "meta_eccentricity": 0.0004313,
        "meta_inclination": 97.4391,
        "meta_ra_of_asc_node": 102.6185,
        "meta_arg_of_pericenter": 231.1779,
        "meta_mean_anomaly": 128.9075,
        "meta_ephemeris_type": 0,
        "meta_classification_type": "U",
        "meta_norad_cat_id": 58660,
        "meta_element_set_no": 999,
        "meta_rev_at_epoch": 10956,
        "meta_bstar": 0.00029220957,
        "meta_mean_motion_dot": 7.895e-05,
        "meta_mean_motion_ddot": 0,
        "tle_line1": "1 58660U 23208A   25351.59087425  .00007895  00000+0  29221-3 0  9993",
        "tle_line2": "2 58660  97.4391 102.6185 0004313 231.1779 128.9075 15.27938030109565"
      },
      "geometry": {
        "type": "Point",
        "coordinates": [
          102.30804483771047,
          5.368938352900037
        ]
      }
    },
    {
      "type": "Feature",
      "properties": {
        "norad_id": 58661,
        "name": "TIANMU-1 20",
        "group": "weather",
        "lat": 75.77397891761845,
        "lon": -45.541435476552195,
        "alt_km": 474.70405151931664,
        "timestamp": "2025-12-17T23:38:06.507758+00:00",
        "meta_object_name": "TIANMU-1 20",
        "meta_object_id": "2023-208B",
        "meta_epoch": "2025-12-17T12:11:45.240864",
        "meta_mean_motion": 15.29127633,
        "meta_eccentricity": 0.00064442,
        "meta_inclination": 97.4328,
        "meta_ra_of_asc_node": 102.9883,
        "meta_arg_of_pericenter": 245.5831,
        "meta_mean_anomaly": 114.4737,
        "meta_ephemeris_type": 0,
        "meta_classification_type": "U",
        "meta_norad_cat_id": 58661,
        "meta_element_set_no": 999,
        "meta_rev_at_epoch": 10962,
        "meta_bstar": 0.00027684029,
        "meta_mean_motion_dot": 7.756e-05,
        "meta_mean_motion_ddot": 0,
        "tle_line1": "1 58661U 23208B   25351.50816251  .00007756  00000+0  27684-3 0  9999",
        "tle_line2": "2 58661  97.4328 102.9883 0006444 245.5831 114.4737 15.29127633109622"
      },
      "geometry": {
        "type": "Point",
        "coordinates": [
          -45.541435476552195,
          75.77397891761845
        ]
      }
    },
    {
      "type": "Feature",
      "properties": {
        "norad_id": 58662,
        "name": "TIANMU-1 21",
        "group": "weather",
        "lat": 25.338457371743914,
        "lon": -71.05721915727102,
        "alt_km": 469.72257435180563,
        "timestamp": "2025-12-17T23:38:06.507769+00:00",
        "meta_object_name": "TIANMU-1 21",
        "meta_object_id": "2023-208C",
        "meta_epoch": "2025-12-17T13:33:19.203840",
        "meta_mean_motion": 15.31654018,
        "meta_eccentricity": 0.00060513,
        "meta_inclination": 97.4376,
        "meta_ra_of_asc_node": 104.9748,
        "meta_arg_of_pericenter": 239.6484,
        "meta_mean_anomaly": 120.4159,
        "meta_ephemeris_type": 0,
        "meta_classification_type": "U",
        "meta_norad_cat_id": 58662,
        "meta_element_set_no": 999,
        "meta_rev_at_epoch": 10973,
        "meta_bstar": 0.00029898325,
        "meta_mean_motion_dot": 9.066e-05,
        "meta_mean_motion_ddot": 0,
        "tle_line1": "1 58662U 23208C   25351.56480560  .00009066  00000+0  29898-3 0  9991",
        "tle_line2": "2 58662  97.4376 104.9748 0006051 239.6484 120.4159 15.31654018109732"
      },
      "geometry": {
        "type": "Point",
        "coordinates": [
          -71.05721915727102,
          25.338457371743914
        ]
      }
    },
    {
      "type": "Feature",
      "properties": {
        "norad_id": 58663,
        "name": "TIANMU-1 22",
        "group": "weather",
        "lat": 1.9005406487557404,
        "lon": 102.82002987952622,
        "alt_km": 485.9513397140854,
        "timestamp": "2025-12-17T23:38:06.507779+00:00",
        "meta_object_name": "TIANMU-1 22",
        "meta_object_id": "2023-208D",
        "meta_epoch": "2025-12-17T12:37:21.705888",
        "meta_mean_motion": 15.27685362,
        "meta_eccentricity": 0.00026894,
        "meta_inclination": 97.4385,
        "meta_ra_of_asc_node": 102.6107,
        "meta_arg_of_pericenter": 261.4401,
        "meta_mean_anomaly": 98.6534,
        "meta_ephemeris_type": 0,
        "meta_classification_type": "U",
        "meta_norad_cat_id": 58663,
        "meta_element_set_no": 999,
        "meta_rev_at_epoch": 10956,
        "meta_bstar": 0.00027878752,
        "meta_mean_motion_dot": 7.469e-05,
        "meta_mean_motion_ddot": 0,
        "tle_line1": "1 58663U 23208D   25351.52594567  .00007469  00000+0  27879-3 0  9993",
        "tle_line2": "2 58663  97.4385 102.6107 0002689 261.4401  98.6534 15.27685362109567"
      },
      "geometry": {
        "type": "Point",
        "coordinates": [
          102.82002987952622,
          1.9005406487557404
        ]
      }
    },
    {
      "type": "Feature",
      "properties": {
        "norad_id": 58700,
        "name": "TIANMU-1 15",
        "group": "weather",
        "lat": 70.47288629827048,
        "lon": 151.74282793639546,
        "alt_km": 489.00520426920593,
        "timestamp": "2025-12-17T23:38:06.507789+00:00",
        "meta_object_name": "TIANMU-1 15",
        "meta_object_id": "2024-004A",
        "meta_epoch": "2025-12-15T13:02:10.173984",
        "meta_mean_motion": 15.24523626,
        "meta_eccentricity": 0.00056536,
        "meta_inclination": 97.4626,
        "meta_ra_of_asc_node": 171.0022,
        "meta_arg_of_pericenter": 279.9728,
        "meta_mean_anomaly": 80.0871,
        "meta_ephemeris_type": 0,
        "meta_classification_type": "U",
        "meta_norad_cat_id": 58700,
        "meta_element_set_no": 999,
        "meta_rev_at_epoch": 10777,
        "meta_bstar": 0.00021318175,
        "meta_mean_motion_dot": 5.174e-05,
        "meta_mean_motion_ddot": 0,
        "tle_line1": "1 58700U 24004A   25349.54317331  .00005174  00000+0  21318-3 0  9994",
        "tle_line2": "2 58700  97.4626 171.0022 0005653 279.9728  80.0871 15.24523626107774"
      },
      "geometry": {
        "type": "Point",
        "coordinates": [
          151.74282793639546,
          70.47288629827048
        ]
      }
    }
  ]
}